[{"OBJECT_NAME":"GENMAT-1","OBJECT_ID":"2023-174W","EPOCH":"2026-03-09T18:03:23.351040","MEAN_MOTION":15.32594666,"ECCENTRICITY":0.00074416,"INCLINATION":97.3728,"RA_OF_ASC_NODE":146.8236,"ARG_OF_PERICENTER":169.2515,"MEAN_ANOMALY":190.8888,"EPHEMERIS_TYPE":0,"CLASSIFICATION_TYPE":"U","NORAD_CAT_ID":58276,"ELEMENT_SET_NO":999,"REV_AT_EPOCH":12973,"BSTAR":0.00042157222,"MEAN_MOTION_DOT":0.0001321,"MEAN_MOTION_DDOT":0},{"OBJECT_NAME":"STARLINK-35074","OBJECT_ID":"2025-192U","EPOCH":"2026-03-09T21:16:46.062336","MEAN_MOTION":15.30210364,"ECCENTRICITY":7.971e-5,"INCLINATION":53.1588,"RA_OF_ASC_NODE":231.4828,"ARG_OF_PERICENTER":59.4601,"MEAN_ANOMALY":300.6479,"EPHEMERIS_TYPE":0,"CLASSIFICATION_TYPE":"U","NORAD_CAT_ID":65422,"ELEMENT_SET_NO":999,"REV_AT_EPOCH":2941,"BSTAR":0.0010780898,"MEAN_MOTION_DOT":0.00031717,"MEAN_MOTION_DDOT":0}]
